LEMUR-2-AMANDA-SVANTE   
1 48269U 21034B   26068.77637527  .00030872  00000+0  11134-2 0  9996
2 48269  97.5829 144.8625 0002703 205.4721 154.6385 15.28469003265849
STARLINK-35569          
1 66471U 25262R   26068.00982325  .00029990  00000+0  10944-2 0  9990
2 66471  42.9935 299.9058 0000570 217.4530 142.6282 15.27594777 18800
