[{"OBJECT_NAME":"LEMUR-2-AMANDA-SVANTE","OBJECT_ID":"2021-034B","EPOCH":"2026-03-09T18:37:58.823328","MEAN_MOTION":15.28469003,"ECCENTRICITY":0.00027027,"INCLINATION":97.5829,"RA_OF_ASC_NODE":144.8625,"ARG_OF_PERICENTER":205.4721,"MEAN_ANOMALY":154.6385,"EPHEMERIS_TYPE":0,"CLASSIFICATION_TYPE":"U","NORAD_CAT_ID":48269,"ELEMENT_SET_NO":999,"REV_AT_EPOCH":26584,"BSTAR":0.0011134246,"MEAN_MOTION_DOT":0.00030872,"MEAN_MOTION_DDOT":0},{"OBJECT_NAME":"STARLINK-35569","OBJECT_ID":"2025-262R","EPOCH":"2026-03-09T00:14:08.728800","MEAN_MOTION":15.27594777,"ECCENTRICITY":5.701e-5,"INCLINATION":42.9935,"RA_OF_ASC_NODE":299.9058,"ARG_OF_PERICENTER":217.453,"MEAN_ANOMALY":142.6282,"EPHEMERIS_TYPE":0,"CLASSIFICATION_TYPE":"U","NORAD_CAT_ID":66471,"ELEMENT_SET_NO":999,"REV_AT_EPOCH":1880,"BSTAR":0.0010944296,"MEAN_MOTION_DOT":0.0002999,"MEAN_MOTION_DDOT":0}]
